[{"OBJECT_NAME":"STARLINK-4188","OBJECT_ID":"2022-062P","EPOCH":"2026-03-09T22:03:55.161216","MEAN_MOTION":15.08823467,"ECCENTRICITY":0.00018408,"INCLINATION":53.2178,"RA_OF_ASC_NODE":33.0875,"ARG_OF_PERICENTER":100.4096,"MEAN_ANOMALY":259.7103,"EPHEMERIS_TYPE":0,"CLASSIFICATION_TYPE":"U","NORAD_CAT_ID":52843,"ELEMENT_SET_NO":999,"REV_AT_EPOCH":20582,"BSTAR":8.4347034e-5,"MEAN_MOTION_DOT":1.054e-5,"MEAN_MOTION_DDOT":0},{"OBJECT_NAME":"LEMUR-2-KREMPEL-BRO2","OBJECT_ID":"2025-061C","EPOCH":"2026-03-09T20:43:52.091904","MEAN_MOTION":15.13192951,"ECCENTRICITY":0.00179248,"INCLINATION":97.5616,"RA_OF_ASC_NODE":45.5365,"ARG_OF_PERICENTER":236.8576,"MEAN_ANOMALY":123.0936,"EPHEMERIS_TYPE":0,"CLASSIFICATION_TYPE":"U","NORAD_CAT_ID":63353,"ELEMENT_SET_NO":999,"REV_AT_EPOCH":5258,"BSTAR":0.00044346981,"MEAN_MOTION_DOT":7.837e-5,"MEAN_MOTION_DDOT":0}]
